CCSDS_OMM_VERS,COMMENT,CREATION_DATE,ORIGINATOR,OBJECT_NAME,OBJECT_ID,CENTER_NAME,REF_FRAME,TIME_SYSTEM,MEAN_ELEMENT_THEORY,EPOCH,MEAN_MOTION,ECCENTRICITY,INCLINATION,RA_OF_ASC_NODE,ARG_OF_PERICENTER,MEAN_ANOMALY,EPHEMERIS_TYPE,CLASSIFICATION_TYPE,NORAD_CAT_ID,ELEMENT_SET_NO,REV_AT_EPOCH,BSTAR,MEAN_MOTION_DOT,MEAN_MOTION_DDOT,SEMIMAJOR_AXIS,PERIOD,APOAPSIS,PERIAPSIS,OBJECT_TYPE,RCS_SIZE,COUNTRY_CODE,LAUNCH_DATE,SITE,DECAY_DATE,FILE,GP_ID,TLE_LINE0,TLE_LINE1,TLE_LINE2
2.0,GENERATED VIA SPACE-TRACK.ORG API,2022-08-20T06:56:12,18 SPCS,STARLINK-2049,2021-005H,EARTH,TEME,UTC,SGP4,2022-08-20T00:33:50.031072,15.06393374,0.000136,53.0532,97.0708,77.3192,282.7949,0,U,47356,999,8882,0.00022831,3.12e-05,0.0,6925.369,95.593,548.176,546.292,PAYLOAD,LARGE,US,2021-01-20,AFETR,,3540797,210552558,0 STARLINK-2049,1 47356U 21005H   22232.02349573  .00003120  00000-0  22831-3 0  9992,2 47356  53.0532  97.0708 0001360  77.3192 282.7949 15.06393374 88823
2.0,GENERATED VIA SPACE-TRACK.ORG API,2022-08-20T06:56:12,18 SPCS,STARLINK-2041,2021-012AP,EARTH,TEME,UTC,SGP4,2022-08-20T00:33:49.265568,15.06388974,0.0001191,53.0545,137.0769,71.4844,288.6274,0,U,47657,999,8388,-9.8348e-05,-1.745e-05,0.0,6925.382,95.593,548.072,546.423,PAYLOAD,LARGE,US,2021-02-16,AFETR,,3540793,210552499,0 STARLINK-2041,1 47657U 21012AP  22232.02348687 -.00001745  00000-0 -98348-4 0  9999,2 47657  53.0545 137.0769 0001191  71.4844 288.6274 15.06388974 83881
2.0,GENERATED VIA SPACE-TRACK.ORG API,2022-08-20T07:06:17,18 SPCS,STARLINK-1898,2020-074G,EARTH,TEME,UTC,SGP4,2022-08-20T00:32:35.987136,15.55046,0.000882,53.0519,315.1085,274.4549,85.5454,0,U,46745,999,10208,0.0020735,0.00144077,0.0,6780.156,92.602,408.001,396.041,PAYLOAD,LARGE,US,2020-10-24,AFETR,,3540823,210552783,0 STARLINK-1898,1 46745U 20074G   22232.02263874  .00144077  00000-0  20735-2 0  9994,2 46745  53.0519 315.1085 0008820 274.4549  85.5454 15.55046000102085
2.0,GENERATED VIA SPACE-TRACK.ORG API,2022-08-20T06:56:12,18 SPCS,STARLINK-2046,2021-005F,EARTH,TEME,UTC,SGP4,2022-08-20T00:31:50.084544,15.06372484,0.0001606,53.0513,92.071,72.2455,287.8709,0,U,47354,999,8860,0.00043781,6.241e-05,0.0,6925.433,95.594,548.41,546.186,PAYLOAD,LARGE,US,2021-01-20,AFETR,,3540805,210552073,0 STARLINK-2046,1 47354U 21005F   22232.02210746  .00006241  00000-0  43781-3 0  9993,2 47354  53.0513  92.0710 0001606  72.2455 287.8709 15.06372484 88602
2.0,GENERATED VIA SPACE-TRACK.ORG API,2022-08-20T06:36:12,18 SPCS,STARLINK-1338,2020-025B,EARTH,TEME,UTC,SGP4,2022-08-20T00:31:49.738080,15.06387096,0.0001478,53.055,172.082,79.8933,280.2223,0,U,45532,999,12892,-5.5259e-05,-1.104e-05,0.0,6925.388,95.593,548.277,546.23,PAYLOAD,LARGE,US,2020-04-22,AFETR,,3540733,210551083,0 STARLINK-1338,1 45532U 20025B   22232.02210345 -.00001104  00000-0 -55259-4 0  9994,2 45532  53.0550 172.0820 0001478  79.8933 280.2223 15.06387096128924
2.0,GENERATED VIA SPACE-TRACK.ORG API,2022-08-20T06:56:12,18 SPCS,STARLINK-1515,2020-055AQ,EARTH,TEME,UTC,SGP4,2022-08-20T00:31:47.681760,15.06379147,0.0001785,53.0539,162.0804,59.6781,300.4384,0,U,46065,999,11321,-0.00029047,-4.603e-05,0.0,6925.412,95.593,548.514,546.041,PAYLOAD,LARGE,US,2020-08-07,AFETR,,3540800,210552132,0 STARLINK-1515,1 46065U 20055AQ  22232.02207965 -.00004603  00000-0 -29047-3 0  9995,2 46065  53.0539 162.0804 0001785  59.6781 300.4384 15.06379147113219
2.0,GENERATED VIA SPACE-TRACK.ORG API,2022-08-20T06:56:12,18 SPCS,STARLINK-2532,2021-036AJ,EARTH,TEME,UTC,SGP4,2022-08-20T00:31:10.697376,15.06379831,0.0001735,53.0536,157.0762,63.0548,297.0618,0,U,48308,999,7317,-0.00013774,-2.331e-05,0.0,6925.41,95.593,548.477,546.074,PAYLOAD,LARGE,US,2021-04-29,AFETR,,3540780,210552281,0 STARLINK-2532,1 48308U 21036AJ  22232.02165159 -.00002331  00000-0 -13774-3 0  9991,2 48308  53.0536 157.0762 0001735  63.0548 297.0618 15.06379831 73171
2.0,GENERATED VIA SPACE-TRACK.ORG API,2022-08-20T08:36:13,18 SPCS,TANSUO 1,2004-012A,EARTH,TEME,UTC,SGP4,2022-08-20T00:30:59.826528,15.02151833,0.0012567,97.9782,225.9604,114.656,245.5974,0,U,28220,999,99974,0.00015015,1.913e-05,0.0,6938.399,95.862,568.984,551.545,PAYLOAD,LARGE,PRC,2004-04-18,XSC,,3540945,210555233,0 TANSUO 1,1 28220U 04012A   22232.02152577  .00001913  00000-0  15015-3 0  9990,2 28220  97.9782 225.9604 0012567 114.6560 245.5974 15.02151833999743
2.0,GENERATED VIA SPACE-TRACK.ORG API,2022-08-20T06:46:12,18 SPCS,STARLINK-1670,2020-062AX,EARTH,TEME,UTC,SGP4,2022-08-20T00:30:30.780576,15.0638335,0.000133,53.0546,62.0807,81.5437,278.5703,0,U,46370,999,10918,-8.1395e-05,-1.493e-05,0.0,6925.4,95.593,548.186,546.344,PAYLOAD,LARGE,US,2020-09-03,AFETR,,3540764,210551607,0 STARLINK-1670,1 46370U 20062AX  22232.02118959 -.00001493  00000-0 -81395-4 0  9995,2 46370  53.0546  62.0807 0001330  81.5437 278.5703 15.06383350109188
2.0,GENERATED VIA SPACE-TRACK.ORG API,2022-08-20T07:46:12,18 SPCS,STARLINK-1461,2020-038A,EARTH,TEME,UTC,SGP4,2022-08-20T00:30:29.582208,15.06387952,0.0001345,53.0526,302.0949,82.6792,277.435,0,U,45730,999,12172,-0.00024005,-3.854e-05,0.0,6925.385,95.593,548.182,546.319,PAYLOAD,LARGE,US,2020-06-13,AFETR,,3540889,210554401,0 STARLINK-1461,1 45730U 20038A   22232.02117572 -.00003854  00000-0 -24005-3 0  9994,2 45730  53.0526 302.0949 0001345  82.6792 277.4350 15.06387952121723
2.0,GENERATED VIA SPACE-TRACK.ORG API,2022-08-20T06:36:12,18 SPCS,STARLINK-1324,2020-025AV,EARTH,TEME,UTC,SGP4,2022-08-20T00:30:29.192544,15.06394693,0.0001292,53.0513,142.0719,74.6412,285.4719,0,U,45574,999,12932,0.00025331,3.493e-05,0.0,6925.365,95.592,548.125,546.335,PAYLOAD,LARGE,US,2020-04-22,AFETR,,3540731,210551064,0 STARLINK-1324,1 45574U 20025AV  22232.02117121  .00003493  00000-0  25331-3 0  9996,2 45574  53.0513 142.0719 0001292  74.6412 285.4719 15.06394693129325
2.0,GENERATED VIA SPACE-TRACK.ORG API,2022-08-20T06:36:12,18 SPCS,COSMOS 220,1968-040A,EARTH,TEME,UTC,SGP4,2022-08-20T00:30:12.631392,14.76556055,0.0037834,74.0261,48.9152,312.5216,47.2765,0,U,3229,999,90501,5.8167e-05,3.74e-06,0.0,7018.353,97.524,666.771,613.665,PAYLOAD,LARGE,CIS,1968-05-07,PKMTR,,3540723,210550955,0 COSMOS 220,1  3229U 68040A   22232.02097953  .00000374  00000-0  58167-4 0  9995,2  3229  74.0261  48.9152 0037834 312.5216  47.2765 14.76556055905012
2.0,GENERATED VIA SPACE-TRACK.ORG API,2022-08-20T06:56:12,18 SPCS,STARLINK-2098,2021-005AF,EARTH,TEME,UTC,SGP4,2022-08-20T00:29:50.745408,15.06390342,0.0001501,53.0556,87.0935,80.8842,279.2317,0,U,47378,999,8801,-0.00016614,-2.755e-05,0.0,6925.378,95.593,548.283,546.204,PAYLOAD,LARGE,US,2021-01-20,AFETR,,3540799,210552114,0 STARLINK-2098,1 47378U 21005AF  22232.02072622 -.00002755  00000-0 -16614-3 0  9991,2 47378  53.0556  87.0935 0001501  80.8842 279.2317 15.06390342 88015
2.0,GENERATED VIA SPACE-TRACK.ORG API,2022-08-20T07:16:13,18 SPCS,STARLINK-2621,2021-038T,EARTH,TEME,UTC,SGP4,2022-08-20T00:28:30.672480,15.06393939,0.000135,53.0548,57.0912,77.4474,282.6666,0,U,48370,999,7216,4.9617e-05,4.58e-06,0.0,6925.367,95.593,548.167,546.297,PAYLOAD,LARGE,US,2021-05-04,AFETR,,3540843,210553477,0 STARLINK-2621,1 48370U 21038T   22232.01979945  .00000458  00000-0  49617-4 0  9999,2 48370  53.0548  57.0912 0001350  77.4474 282.6666 15.06393939 72165
2.0,GENERATED VIA SPACE-TRACK.ORG API,2022-08-20T06:46:12,18 SPCS,STARLINK-2026,2021-012AA,EARTH,TEME,UTC,SGP4,2022-08-20T00:28:30.652608,15.06380054,0.0001508,53.0554,137.0928,73.2008,286.9146,0,U,47644,999,8388,0.00012497,1.579e-05,0.0,6925.41,95.593,548.319,546.23,PAYLOAD,LARGE,US,2021-02-16,AFETR,,3540763,210551577,0 STARLINK-2026,1 47644U 21012AA  22232.01979922  .00001579  00000-0  12497-3 0  9999,2 47644  53.0554 137.0928 0001508  73.2008 286.9146 15.06380054 83888
2.0,GENERATED VIA SPACE-TRACK.ORG API,2022-08-20T07:26:12,18 SPCS,STARLINK-1436,2020-035BJ,EARTH,TEME,UTC,SGP4,2022-08-20T00:27:49.902912,15.06387896,0.0001417,53.053,122.0718,85.3147,274.8004,0,U,45713,999,12287,-0.00028862,-4.576e-05,0.0,6925.386,95.593,548.232,546.269,PAYLOAD,LARGE,US,2020-06-04,AFETR,,3540869,210553773,0 STARLINK-1436,1 45713U 20035BJ  22232.01932758 -.00004576  00000-0 -28862-3 0  9999,2 45713  53.0530 122.0718 0001417  85.3147 274.8004 15.06387896122878
2.0,GENERATED VIA SPACE-TRACK.ORG API,2022-08-20T07:26:12,18 SPCS,BREEZE-KM R/B,2016-011B,EARTH,TEME,UTC,SGP4,2022-08-20T00:26:40.998912,15.02042244,0.0216525,98.696,250.0974,89.1528,273.4494,0,U,41336,999,35600,0.00016549,3.522e-05,0.0,6938.737,95.869,710.843,410.361,ROCKET BODY,LARGE,CIS,2016-02-16,PKMTR,,3540864,210553911,0 BREEZE-KM R/B,1 41336U 16011B   22232.01853008  .00003522  00000-0  16549-3 0  9992,2 41336  98.6960 250.0974 0216525  89.1528 273.4494 15.02042244356009
2.0,GENERATED VIA SPACE-TRACK.ORG API,2022-08-20T06:46:12,18 SPCS,STARLINK-2040,2021-012AN,EARTH,TEME,UTC,SGP4,2022-08-20T00:25:51.001824,15.06396038,0.0001435,53.0546,117.1007,79.8523,280.2628,0,U,47656,999,8415,3.4516e-05,2.33e-06,0.0,6925.361,95.592,548.219,546.232,PAYLOAD,LARGE,US,2021-02-16,AFETR,,3540766,210551434,0 STARLINK-2040,1 47656U 21012AN  22232.01795141  .00000233  00000-0  34516-4 0  9994,2 47656  53.0546 117.1007 0001435  79.8523 280.2628 15.06396038 84154
2.0,GENERATED VIA SPACE-TRACK.ORG API,2022-08-20T06:36:12,18 SPCS,STARLINK-1320,2020-025AT,EARTH,TEME,UTC,SGP4,2022-08-20T00:25:11.825472,15.06390599,0.0001482,53.0541,142.099,76.6708,283.4446,0,U,45572,999,12931,-8.1018e-05,-1.488e-05,0.0,6925.377,95.593,548.269,546.216,PAYLOAD,LARGE,US,2020-04-22,AFETR,,3540729,210551041,0 STARLINK-1320,1 45572U 20025AT  22232.01749798 -.00001488  00000-0 -81018-4 0  9993,2 45572  53.0541 142.0990 0001482  76.6708 283.4446 15.06390599129311
